NORAD_CAT_ID,OBJECT_NAME,OBJECT_TYPE,EPOCH,MEAN_MOTION,ECCENTRICITY,INCLINATION,RA_OF_ASC_NODE,ARG_OF_PERICENTER,MEAN_ANOMALY,BSTAR,MEAN_MOTION_DOT,MEAN_MOTION_DDOT,TLE_LINE0,TLE_LINE1,TLE_LINE2,SEMIMAJOR_AXIS,PERIOD,APOGEE,PERIGEE,DECAYED
49141.0,STARLINK-3093,PAYLOAD,2023-11-16 06:18:37,14.98328351,0.0002284,70.0006,263.5626,279.5192,80.5709,0.00012276,1.372e-05,0.0,0 STARLINK-3093,1 49141U 21082M   23320.26293068  .00001372  00000-0  12276-3 0  9992,2 49141  70.0006 263.5626 0002284 279.5192  80.5709 14.98328351120696,6950.198,96.107,573.65,570.476,0.0
49141.0,STARLINK-3093,PAYLOAD,2023-11-17 03:08:21,14.98329278,0.0001781,70.0011,261.3744,259.2585,100.8373,0.00041371,4.847e-05,0.0,0 STARLINK-3093,1 49141U 21082M   23321.13080223  .00004847  00000-0  41371-3 0  9994,2 49141  70.0011 261.3744 0001781 259.2585 100.8373 14.98329278120828,6950.195,96.107,573.298,570.822,0.0
49141.0,STARLINK-3093,PAYLOAD,2023-11-17 06:20:38,14.98317978,0.0002281,70.001,261.0382,264.9531,95.1368,0.00027392,3.176e-05,0.0,0 STARLINK-3093,1 49141U 21082M   23321.26433301  .00003176  00000-0  27392-3 0  9998,2 49141  70.0010 261.0382 0002281 264.9531  95.1368 14.98317978120848,6950.23,96.108,573.68,570.51,0.0
49141.0,STARLINK-3093,PAYLOAD,2023-11-18 03:10:22,14.9833068,0.0003057,69.999,258.8512,281.2056,78.876,7.1714e-05,7.63e-06,0.0,0 STARLINK-3093,1 49141U 21082M   23322.13220816  .00000763  00000-0  71714-4 0  9997,2 49141  69.9990 258.8512 0003057 281.2056  78.8760 14.98330680120970,6950.191,96.107,574.18,569.931,0.0
49141.0,STARLINK-3093,PAYLOAD,2023-11-18 12:47:10,14.98336965,0.0002618,69.9992,257.8409,273.2182,86.8677,-4.8817e-05,-6.75e-06,0.0,0 STARLINK-3093,1 49141U 21082M   23322.53276605 -.00000675  00000-0 -48817-4 0  9990,2 49141  69.9992 257.8409 0002618 273.2182  86.8677 14.98336965121035,6950.171,96.107,573.856,570.217,0.0
49141.0,STARLINK-3093,PAYLOAD,2023-11-19 03:12:24,14.9833216,0.000164,70.002,256.3243,283.6519,76.4457,-0.00017849,-2.222e-05,0.0,0 STARLINK-3093,1 49141U 21082M   23323.13361381 -.00002222  00000-0 -17849-3 0  9993,2 49141  70.0020 256.3243 0001640 283.6519  76.4457 14.98332160121127,6950.186,96.107,573.191,570.911,0.0
49141.0,STARLINK-3093,PAYLOAD,2023-11-19 12:49:13,14.9829195,0.0001758,70.0015,255.315,284.7742,75.3222,0.00074806,8.835e-05,0.0,0 STARLINK-3093,1 49141U 21082M   23323.53418110  .00008835  00000-0  74806-3 0  9990,2 49141  70.0015 255.3150 0001758 284.7742  75.3222 14.98291950121182,6950.311,96.109,573.397,570.954,0.0
49141.0,STARLINK-3093,PAYLOAD,2023-11-19 19:13:44,14.98330947,0.0002252,70.0017,254.6414,275.8098,84.2804,9.178e-05,1.002e-05,0.0,0 STARLINK-3093,1 49141U 21082M   23323.80120567  .00001002  00000-0  91780-4 0  9996,2 49141  70.0017 254.6414 0002252 275.8098  84.2804 14.98330947121224,6950.19,96.107,573.62,570.49,0.0
49141.0,STARLINK-3093,PAYLOAD,2023-11-19 22:26:00,14.9833401,0.0002215,70.0002,254.3062,257.8292,102.2619,4.0235e-05,3.87e-06,0.0,0 STARLINK-3093,1 49141U 21082M   23323.93472378  .00000387  00000-0  40235-4 0  9994,2 49141  70.0002 254.3062 0002215 257.8292 102.2619 14.98334010121241,6950.18,96.107,573.585,570.506,0.0
49141.0,STARLINK-3093,PAYLOAD,2023-11-20 03:14:23,14.98341129,0.0002081,70.0009,253.8004,264.6303,95.4618,0.0001658,1.886e-05,0.0,0 STARLINK-3093,1 49141U 21082M   23324.13499693  .00001886  00000-0  16580-3 0  9996,2 49141  70.0009 253.8004 0002081 264.6303  95.4618 14.98341129121272,6950.158,96.106,573.47,570.577,0.0
49141.0,STARLINK-3093,PAYLOAD,2023-11-20 06:26:40,14.98335581,0.0002611,70.0009,253.4638,262.429,97.6573,6.1786e-05,6.44e-06,0.0,0 STARLINK-3093,1 49141U 21082M   23324.26852083  .00000644  00000-0  61786-4 0  9996,2 49141  70.0009 253.4638 0002611 262.4290  97.6573 14.98335581121292,6950.176,96.107,573.855,570.226,0.0
49141.0,STARLINK-3093,PAYLOAD,2023-11-20 12:51:12,14.98331243,0.0002166,70.0012,252.7895,272.0213,88.0697,1.3115e-06,-7.7e-07,0.0,0 STARLINK-3093,1 49141U 21082M   23324.53556655 -.00000077  00000-0  13115-5 0  9997,2 49141  70.0012 252.7895 0002166 272.0213  88.0697 14.98331243121337,6950.189,96.107,573.559,570.549,0.0
49141.0,STARLINK-3093,PAYLOAD,2023-11-20 22:28:01,14.98330666,0.0002668,69.9991,251.7794,271.6935,88.3919,8.6344e-06,1e-07,0.0,0 STARLINK-3093,1 49141U 21082M   23324.93612425  .00000010  00000-0  86344-5 0  9999,2 49141  69.9991 251.7794 0002668 271.6935  88.3919 14.98330666121394,6950.191,96.107,573.91,570.202,0.0
49141.0,STARLINK-3093,PAYLOAD,2023-11-21 03:16:24,14.98347291,0.000227,70.0006,251.2759,264.4264,95.6636,0.00022725,2.621e-05,0.0,0 STARLINK-3093,1 49141U 21082M   23325.13638920  .00002621  00000-0  22725-3 0  9991,2 49141  70.0006 251.2759 0002270 264.4264  95.6636 14.98347291121427,6950.139,96.106,573.582,570.427,0.0
49141.0,STARLINK-3093,PAYLOAD,2023-11-21 04:52:33,14.98334157,0.0002236,70.0005,251.1076,266.7288,93.3616,7.975e-05,8.59e-06,0.0,0 STARLINK-3093,1 49141U 21082M   23325.20316078  .00000859  00000-0  79750-4 0  9998,2 49141  70.0005 251.1076 0002236 266.7288  93.3616 14.98334157121431,6950.18,96.107,573.599,570.491,0.0
49141.0,STARLINK-3093,PAYLOAD,2023-11-21 20:53:54,14.98329233,0.0002726,69.9992,249.4248,267.2066,92.8781,7.0594e-06,-9e-08,0.0,0 STARLINK-3093,1 49141U 21082M   23325.87076410 -.00000009  00000-0  70594-5 0  9990,2 49141  69.9992 249.4248 0002726 267.2066  92.8781 14.98329233121535,6950.195,96.107,573.955,570.166,0.0
49141.0,STARLINK-3093,PAYLOAD,2023-11-22 04:54:33,14.98336013,0.0002554,70.0006,248.5836,268.3692,91.7175,3.5458e-05,3.3e-06,0.0,0 STARLINK-3093,1 49141U 21082M   23326.20455894  .00000330  00000-0  35458-4 0  9990,2 49141  70.0006 248.5836 0002554 268.3692  91.7175 14.98336013121587,6950.174,96.107,573.814,570.264,0.0
49141.0,STARLINK-3093,PAYLOAD,2023-11-22 20:55:54,14.98330892,0.0002333,70.0006,246.9015,255.2821,104.808,5.8697e-05,6.08e-06,0.0,0 STARLINK-3093,1 49141U 21082M   23326.87216141  .00000608  00000-0  58697-4 0  9991,2 49141  70.0006 246.9015 0002333 255.2821 104.8080 14.98330892121683,6950.19,96.107,573.677,570.434,0.0
49141.0,STARLINK-3093,PAYLOAD,2023-11-23 03:20:27,14.98327369,0.000231,70.0008,246.2291,254.7123,105.3781,8.3849e-05,9.08e-06,0.0,0 STARLINK-3093,1 49141U 21082M   23327.13920318  .00000908  00000-0  83849-4 0  9999,2 49141  70.0008 246.2291 0002310 254.7123 105.3781 14.98327369121722,6950.201,96.107,573.672,570.461,0.0
49141.0,STARLINK-3093,PAYLOAD,2023-11-23 04:56:35,14.9831776,0.0002212,70.0008,246.0607,251.1198,108.9722,0.00026644,3.087e-05,0.0,0 STARLINK-3093,1 49141U 21082M   23327.20596563  .00003087  00000-0  26644-3 0  9998,2 49141  70.0008 246.0607 0002212 251.1198 108.9722 14.98317760121734,6950.231,96.108,573.633,570.558,0.0
49141.0,STARLINK-3093,PAYLOAD,2023-11-23 22:34:04,14.98296969,0.0002062,70.0009,244.2098,239.1849,120.9107,0.00053862,6.334e-05,0.0,0 STARLINK-3093,1 49141U 21082M   23327.94033066  .00006334  00000-0  53862-3 0  9993,2 49141  70.0009 244.2098 0002062 239.1849 120.9107 14.98296969121841,6950.295,96.109,573.593,570.727,0.0
49141.0,STARLINK-3093,PAYLOAD,2023-11-24 03:22:28,14.98318859,0.0002205,70.0009,243.7047,246.5411,113.5517,9.8751e-05,1.085e-05,0.0,0 STARLINK-3093,1 49141U 21082M   23328.14060967  .00001085  00000-0  98751-4 0  9991,2 49141  70.0009 243.7047 0002205 246.5411 113.5517 14.98318859121874,6950.227,96.108,573.625,570.56,0.0
49141.0,STARLINK-3093,PAYLOAD,2023-11-24 04:58:36,14.98324244,0.000229,70.0008,243.5356,254.4603,105.6303,9.4473e-06,2e-07,0.0,0 STARLINK-3093,1 49141U 21082M   23328.20736879  .00000020  00000-0  94473-5 0  9996,2 49141  70.0008 243.5356 0002290 254.4603 105.6303 14.98324244121880,6950.211,96.107,573.667,570.484,0.0
49141.0,STARLINK-3093,PAYLOAD,2023-11-24 19:23:48,14.98330502,0.0002517,69.9996,242.0195,255.498,104.59,8.1071e-05,8.74e-06,0.0,0 STARLINK-3093,1 49141U 21082M   23328.80820311  .00000874  00000-0  81071-4 0  9993,2 49141  69.9996 242.0195 0002517 255.4980 104.5900 14.98330502121974,6950.191,96.107,573.806,570.307,0.0
49141.0,STARLINK-3093,PAYLOAD,2023-11-24 22:36:04,14.98331552,0.0002492,69.9997,241.6825,259.0243,101.0636,9.9727e-05,1.097e-05,0.0,0 STARLINK-3093,1 49141U 21082M   23328.94172229  .00001097  00000-0  99727-4 0  9991,2 49141  69.9997 241.6825 0002492 259.0243 101.0636 14.98331552121990,6950.188,96.107,573.785,570.321,0.0
49141.0,STARLINK-3093,PAYLOAD,2023-11-25 03:24:28,14.98334125,0.0002303,70.001,241.1803,237.3153,122.7784,0.00012397,1.387e-05,0.0,0 STARLINK-3093,1 49141U 21082M   23329.14200023  .00001387  00000-0  12397-3 0  9997,2 49141  70.0010 241.1803 0002303 237.3153 122.7784 14.98334125122028,6950.18,96.107,573.646,570.445,0.0
49141.0,STARLINK-3093,PAYLOAD,2023-11-25 22:38:05,14.98336946,0.0002283,70.001,239.16,230.5451,129.5506,0.00018236,2.084e-05,0.0,0 STARLINK-3093,1 49141U 21082M   23329.94311493  .00002084  00000-0  18236-3 0  9992,2 49141  70.0010 239.1600 0002283 230.5451 129.5506 14.98336946122146,6950.171,96.107,573.623,570.45,0.0
49141.0,STARLINK-3093,PAYLOAD,2023-11-26 03:26:28,14.98350273,0.0002288,70.0002,238.6543,267.1361,92.9536,0.00031387,3.656e-05,0.0,0 STARLINK-3093,1 49141U 21082M   23330.14338416  .00003656  00000-0  31387-3 0  9998,2 49141  70.0002 238.6543 0002288 267.1361  92.9536 14.98350273122176,6950.13,96.106,573.585,570.405,0.0
49141.0,STARLINK-3093,PAYLOAD,2023-11-26 19:27:51,14.98318129,0.0002513,70.0016,236.9725,250.1879,109.901,-0.00013134,-1.659e-05,0.0,0 STARLINK-3093,1 49141U 21082M   23330.81101405 -.00001659  00000-0 -13134-3 0  9991,2 49141  70.0016 236.9725 0002513 250.1879 109.9010 14.98318129122272,6950.23,96.108,573.841,570.348,0.0
49141.0,STARLINK-3093,PAYLOAD,2023-11-26 22:40:08,14.98315132,0.0002502,70.0012,236.6352,241.1389,118.9519,-0.00018689,-2.321e-05,0.0,0 STARLINK-3093,1 49141U 21082M   23330.94453718 -.00002321  00000-0 -18689-3 0  9999,2 49141  70.0012 236.6352 0002502 241.1389 118.9519 14.98315132122292,6950.239,96.108,573.843,570.365,0.0
